OBJECT_NAME,OBJECT_ID,EPOCH,MEAN_MOTION,ECCENTRICITY,INCLINATION,RA_OF_ASC_NODE,ARG_OF_PERICENTER,MEAN_ANOMALY,EPHEMERIS_TYPE,CLASSIFICATION_TYPE,NORAD_CAT_ID,ELEMENT_SET_NO,REV_AT_EPOCH,BSTAR,MEAN_MOTION_DOT,MEAN_MOTION_DDOT
STARLINK-30246,2023-119P,2026-04-16T01:36:38.208096,15.27577621,0.00017596,43.0033,230.3941,259.7566,100.3088,0,U,57615,999,14880,1.3359185e-05,1.05e-06,0.0
STARLINK-30075,2023-119Q,2026-04-15T15:36:32.677344,15.27580989,0.0001442,43.002,232.4499,275.7661,84.3026,0,U,57616,999,14874,7.4504e-05,1.789e-05,0.0
STARLINK-30148,2023-119R,2026-04-15T15:45:47.647008,15.27578032,0.0001422,43.0015,232.501,296.6705,63.4001,0,U,57617,999,14874,4.0767e-05,8.6e-06,0.0
STARLINK-30249,2023-119S,2026-04-16T01:06:44.421408,15.26740668,0.00011949,43.0014,230.2605,273.3311,86.7403,0,U,57618,999,14880,1.4608912e-05,1.32e-06,0.0
STARLINK-30141,2023-119U,2026-04-16T01:23:45.007584,15.26737993,0.00011977,43.0049,230.3544,281.3158,78.7558,0,U,57620,999,14880,8.2486153e-05,1.953e-05,0.0
STARLINK-30150,2023-119V,2026-04-16T01:14:56.312160,15.26742307,0.00011891,43.0019,230.3045,273.9312,86.1404,0,U,57621,999,14880,1.0143682e-05,1.2e-07,0.0
STARLINK-30056,2023-119W,2026-04-16T01:39:23.636448,15.26743467,0.00013039,43.0033,230.4115,271.4569,88.6133,0,U,57622,999,14880,2.9384096e-05,5.29e-06,0.0
STARLINK-30100,2023-119X,2026-04-15T16:24:17.809344,15.26996994,0.00019793,43.0048,232.6976,250.4757,109.5881,0,U,57623,999,14874,-0.0017990153,-0.00048578,0.0
STARLINK-30309,2023-122A,2026-04-16T01:56:53.765376,15.27578181,0.00014217,43.0027,241.4991,265.1788,94.8901,0,U,57632,999,14792,1.5533674e-05,1.65e-06,0.0
STARLINK-30306,2023-122B,2026-04-16T02:02:26.841696,15.2757417,0.00016176,43.0037,241.5259,260.4493,99.6176,0,U,57633,999,14792,-8.484595e-06,-4.96e-06,0.0
STARLINK-30323,2023-122C,2026-04-16T01:18:23.518368,15.26741667,0.00010574,43.0026,230.2633,271.2307,88.8424,0,U,57634,999,14805,2.9382946e-05,5.29e-06,0.0
STARLINK-30329,2023-122D,2026-04-16T02:11:42.103392,15.27573902,0.00014771,43.004,241.5731,274.8288,85.2395,0,U,57635,999,14792,2.5958055e-05,4.52e-06,0.0
STARLINK-30330,2023-122E,2026-04-15T02:44:54.732768,15.27572359,0.00015182,43.0046,247.1398,274.7232,85.3446,0,U,57636,999,14777,1.124916e-06,-2.31e-06,0.0
STARLINK-30311,2023-122F,2026-04-15T18:46:37.801344,15.27557535,0.00017201,43.0036,242.693,263.0993,96.9663,0,U,57637,999,14788,7.3392495e-05,1.756e-05,0.0
STARLINK-30328,2023-122G,2026-04-16T01:14:23.939808,15.27579637,0.00013627,43.0052,230.1822,275.0602,85.0094,0,U,57638,999,14806,4.7178817e-05,1.036e-05,0.0
STARLINK-30326,2023-122H,2026-04-15T16:15:18.594720,15.27565514,0.00010792,43.002,243.6135,266.6739,93.3989,0,U,57639,999,14786,0.00015477086,3.997e-05,0.0
STARLINK-30324,2023-122J,2026-04-15T16:41:12.481440,15.27575288,0.00011051,43.0038,243.7576,270.2122,89.8603,0,U,57640,999,14785,2.2934736e-05,3.69e-06,0.0
STARLINK-30312,2023-122K,2026-04-15T18:37:21.487296,15.27579616,0.00019267,43.0032,242.6429,259.5509,100.5126,0,U,57641,999,14788,6.7433839e-05,1.594e-05,0.0
STARLINK-30263,2023-122L,2026-04-16T01:08:47.274432,15.27579189,0.00012027,43.0023,241.2404,271.7264,88.345,0,U,57642,999,14792,2.2831859e-05,3.66e-06,0.0
STARLINK-30280,2023-122M,2026-04-16T01:19:53.249088,15.27578516,0.00015053,43.0029,241.2969,267.7155,92.3525,0,U,57643,999,14792,3.788817e-05,7.8e-06,0.0
STARLINK-30247,2023-122N,2026-04-16T01:14:20.195232,15.27581562,0.00018044,43.0028,241.2729,262.4509,97.6138,0,U,57644,999,14792,4.0365661e-05,8.49e-06,0.0
STARLINK-30277,2023-122P,2026-04-15T16:12:59.630688,15.27575986,0.00012677,43.0043,101.5196,272.5395,87.5312,0,U,57645,999,14953,3.4715133e-05,6.93e-06,0.0
STARLINK-30265,2023-122Q,2026-04-15T18:42:54.916128,15.27575206,0.0001344,43.0023,242.6711,251.946,108.1246,0,U,57646,999,14788,3.272335e-05,6.38e-06,0.0
STARLINK-30286,2023-122R,2026-04-16T01:25:26.991552,15.27576066,0.00017529,43.0022,241.3261,264.7522,95.313,0,U,57647,999,14792,0.00013319845,3.404e-05,0.0
STARLINK-30243,2023-122S,2026-04-15T16:26:24.563328,15.27574426,0.00015059,43.0017,243.6781,269.0583,91.0096,0,U,57648,999,14786,0.0001003735,2.5e-05,0.0
STARLINK-30299,2023-122U,2026-04-15T20:48:30.767328,15.27590431,0.00012754,42.9997,242.4616,272.768,87.3025,0,U,57650,999,14789,0.00018135302,4.733e-05,0.0
STARLINK-30294,2023-122V,2026-04-16T01:07:01.499232,15.27575852,0.000134,43.0031,230.2163,271.1397,88.9301,0,U,57651,999,14805,-3.9149629e-05,-1.339e-05,0.0
STARLINK-30276,2023-122W,2026-04-16T01:45:51.856704,15.27374663,0.00010048,43.0024,241.427,263.0561,97.0177,0,U,57652,999,14792,0.0016335178,0.0004468,0.0
STARLINK-30289,2023-122X,2026-04-15T20:07:52.370112,15.27230612,0.0002017,43.0034,232.0386,269.4519,90.6101,0,U,57653,999,14800,0.0020088196,0.00054841,0.0
STARLINK-30267,2023-124A,2026-04-16T04:10:32.715264,15.30186856,0.00016966,53.1632,32.9164,84.8609,275.2586,0,U,57663,999,14930,8.79441e-06,-9.9e-07,0.0
