STARLINK-30246          
1 57615U 23119P   26106.06710889  .00000105  00000+0  13359-4 0  9994
2 57615  43.0033 230.3941 0001759 259.7566 100.3088 15.27577621148807
STARLINK-30075          
1 57616U 23119Q   26105.65037821  .00001789  00000+0  74504-4 0  9995
2 57616  43.0020 232.4499 0001442 275.7661  84.3026 15.27580989148745
STARLINK-30148          
1 57617U 23119R   26105.65680147  .00000860  00000+0  40767-4 0  9994
2 57617  43.0015 232.5010 0001422 296.6705  63.4001 15.27578032148746
STARLINK-30249          
1 57618U 23119S   26106.04634747  .00000132  00000+0  14609-4 0  9992
2 57618  43.0014 230.2605 0001194 273.3311  86.7403 15.26740668148808
STARLINK-30141          
1 57620U 23119U   26106.05815981  .00001953  00000+0  82486-4 0  9997
2 57620  43.0049 230.3544 0001197 281.3158  78.7558 15.26737993148802
STARLINK-30150          
1 57621U 23119V   26106.05204065  .00000012  00000+0  10144-4 0  9990
2 57621  43.0019 230.3045 0001189 273.9312  86.1404 15.26742307148804
STARLINK-30056          
1 57622U 23119W   26106.06902357  .00000529  00000+0  29384-4 0  9990
2 57622  43.0033 230.4115 0001303 271.4569  88.6133 15.26743467148809
STARLINK-30100          
1 57623U 23119X   26105.68353946 -.00048578  00000+0 -17990-2 0  9998
2 57623  43.0048 232.6976 0001979 250.4757 109.5881 15.26996994148741
STARLINK-30309          
1 57632U 23122A   26106.08117784  .00000165  00000+0  15534-4 0  9997
2 57632  43.0027 241.4991 0001421 265.1788  94.8901 15.27578181147925
STARLINK-30306          
1 57633U 23122B   26106.08503289 -.00000496  00000+0 -84846-5 0  9999
2 57633  43.0037 241.5259 0001617 260.4493  99.6176 15.27574170147924
STARLINK-30323          
1 57634U 23122C   26106.05443887  .00000529  00000+0  29383-4 0  9993
2 57634  43.0026 230.2633 0001057 271.2307  88.8424 15.26741667148053
STARLINK-30329          
1 57635U 23122D   26106.09145953  .00000452  00000+0  25958-4 0  9990
2 57635  43.0040 241.5731 0001477 274.8288  85.2395 15.27573902147926
STARLINK-30330          
1 57636U 23122E   26105.11452237 -.00000231  00000+0  11249-5 0  9994
2 57636  43.0046 247.1398 0001518 274.7232  85.3446 15.27572359147774
STARLINK-30311          
1 57637U 23122F   26105.78238196  .00001756  00000+0  73392-4 0  9992
2 57637  43.0036 242.6930 0001720 263.0993  96.9663 15.27557535147886
STARLINK-30328          
1 57638U 23122G   26106.05166597  .00001036  00000+0  47179-4 0  9994
2 57638  43.0052 230.1822 0001362 275.0602  85.0094 15.27579637148064
STARLINK-30326          
1 57639U 23122H   26105.67729855  .00003997  00000+0  15477-3 0  9997
2 57639  43.0020 243.6135 0001079 266.6739  93.3989 15.27565514147869
STARLINK-30324          
1 57640U 23122J   26105.69528335  .00000369  00000+0  22935-4 0  9999
2 57640  43.0038 243.7576 0001105 270.2122  89.8603 15.27575288147858
STARLINK-30312          
1 57641U 23122K   26105.77594314  .00001594  00000+0  67434-4 0  9993
2 57641  43.0032 242.6429 0001926 259.5509 100.5126 15.27579616147881
STARLINK-30263          
1 57642U 23122L   26106.04776938  .00000366  00000+0  22832-4 0  9998
2 57642  43.0023 241.2404 0001202 271.7264  88.3450 15.27579189147924
STARLINK-30280          
1 57643U 23122M   26106.05547742  .00000780  00000+0  37888-4 0  9996
2 57643  43.0029 241.2969 0001505 267.7155  92.3525 15.27578516147928
STARLINK-30247          
1 57644U 23122N   26106.05162263  .00000849  00000+0  40366-4 0  9999
2 57644  43.0028 241.2729 0001804 262.4509  97.6138 15.27581562147922
STARLINK-30277          
1 57645U 23122P   26105.67569017  .00000693  00000+0  34715-4 0  9993
2 57645  43.0043 101.5196 0001267 272.5395  87.5312 15.27575986149538
STARLINK-30265          
1 57646U 23122Q   26105.77980227  .00000638  00000+0  32723-4 0  9991
2 57646  43.0023 242.6711 0001344 251.9460 108.1246 15.27575206147884
STARLINK-30286          
1 57647U 23122R   26106.05934018  .00003404  00000+0  13320-3 0  9996
2 57647  43.0022 241.3261 0001752 264.7522  95.3130 15.27576066147923
STARLINK-30243          
1 57648U 23122S   26105.68500652  .00002500  00000+0  10037-3 0  9996
2 57648  43.0017 243.6781 0001505 269.0583  91.0096 15.27574426147866
STARLINK-30299          
1 57650U 23122U   26105.86702277  .00004733  00000+0  18135-3 0  9993
2 57650  42.9997 242.4616 0001275 272.7680  87.3025 15.27590431147898
STARLINK-30294          
1 57651U 23122V   26106.04654513 -.00001339  00000+0 -39150-4 0  9996
2 57651  43.0031 230.2163 0001340 271.1397  88.9301 15.27575852148056
STARLINK-30276          
1 57652U 23122W   26106.07351686  .00044680  00000+0  16335-2 0  9997
2 57652  43.0024 241.4270 0001004 263.0561  97.0177 15.27374663147926
STARLINK-30289          
1 57653U 23122X   26105.83880058  .00054841  00000+0  20088-2 0  9991
2 57653  43.0034 232.0386 0002017 269.4519  90.6101 15.27230612148001
STARLINK-30267          
1 57663U 23124A   26106.17398976 -.00000099  00000+0  87944-5 0  9999
2 57663  53.1632  32.9164 0001696  84.8609 275.2586 15.30186856149306
